NORAD_CAT_ID,OBJECT_NAME,OBJECT_TYPE,EPOCH,MEAN_MOTION,ECCENTRICITY,INCLINATION,RA_OF_ASC_NODE,ARG_OF_PERICENTER,MEAN_ANOMALY,BSTAR,MEAN_MOTION_DOT,MEAN_MOTION_DDOT,TLE_LINE0,TLE_LINE1,TLE_LINE2,SEMIMAJOR_AXIS,PERIOD,APOGEE,PERIGEE,DECAYED
53738.0,STARLINK-4662,PAYLOAD,2023-03-26 05:19:26,15.08833656,0.0001148,53.2203,69.8151,80.9614,279.1508,-3.8367e-05,-8.98e-06,0.0,0 STARLINK-4662,1 53738U 22107AQ  23085.22183426 -.00000898  00000-0 -38367-4 0  9992,2 53738  53.2203  69.8151 0001148  80.9614 279.1508 15.08833656 30858,6917.9,95.438,540.559,538.971,0.0
53738.0,STARLINK-4662,PAYLOAD,2023-03-26 16:27:08,15.08843449,0.0001322,53.218,67.7341,84.2202,275.894,1.9692e-05,2.6e-07,0.0,0 STARLINK-4662,1 53738U 22107AQ  23085.68551040  .00000026  00000-0  19692-4 0  9994,2 53738  53.2180  67.7341 0001322  84.2202 275.8940 15.08843449 30926,6917.87,95.437,540.649,538.82,0.0
53738.0,STARLINK-4662,PAYLOAD,2023-03-27 08:20:58,15.08850557,0.0001389,53.2187,64.7598,87.6325,272.4826,0.00014105,1.958e-05,0.0,0 STARLINK-4662,1 53738U 22107AQ  23086.34790493  .00001958  00000-0  14105-3 0  9993,2 53738  53.2187  64.7598 0001389  87.6325 272.4826 15.08850557 31655,6917.848,95.437,540.674,538.752,0.0
53738.0,STARLINK-4662,PAYLOAD,2023-03-28 06:36:23,15.08848536,0.0001336,53.2185,60.5978,85.9592,274.1552,0.00016898,2.403e-05,0.0,0 STARLINK-4662,1 53738U 22107AQ  23087.27526882  .00002403  00000-0  16898-3 0  9992,2 53738  53.2185  60.5978 0001336  85.9592 274.1552 15.08848536 31163,6917.854,95.437,540.644,538.795,0.0
53738.0,STARLINK-4662,PAYLOAD,2023-03-28 08:11:46,15.08849875,0.0001327,53.2184,60.2997,86.3081,273.8063,0.00019398,2.801e-05,0.0,0 STARLINK-4662,1 53738U 22107AQ  23087.34150798  .00002801  00000-0  19398-3 0  9999,2 53738  53.2184  60.2997 0001327  86.3081 273.8063 15.08849875 31809,6917.85,95.437,540.633,538.797,0.0
53738.0,STARLINK-4662,PAYLOAD,2023-03-29 04:51:46,15.08856366,0.0001276,53.2181,56.4342,98.9246,261.189,0.00024083,3.549e-05,0.0,0 STARLINK-4662,1 53738U 22107AQ  23088.20262296  .00003549  00000-0  24083-3 0  9999,2 53738  53.2181  56.4342 0001276  98.9246 261.1890 15.08856366 31937,6917.83,95.437,540.578,538.813,0.0
53738.0,STARLINK-4662,PAYLOAD,2023-03-30 06:17:58,15.08832584,0.0001195,53.2182,51.6765,93.6845,266.4284,-9.4387e-05,-1.789e-05,0.0,0 STARLINK-4662,1 53738U 22107AQ  23089.26247834 -.00001789  00000-0 -94387-4 0  9998,2 53738  53.2182  51.6765 0001195  93.6845 266.4284 15.08832584 31460,6917.903,95.438,540.595,538.941,0.0
53738.0,STARLINK-4662,PAYLOAD,2023-03-31 06:08:44,15.08846406,0.0001456,53.2179,47.2166,81.4825,278.6332,0.00012184,1.652e-05,0.0,0 STARLINK-4662,1 53738U 22107AQ  23090.25607552  .00001652  00000-0  12184-3 0  9997,2 53738  53.2179  47.2166 0001456  81.4825 278.6332 15.08846406 31619,6917.861,95.437,540.733,538.719,0.0
53738.0,STARLINK-4662,PAYLOAD,2023-03-31 07:44:07,15.08855189,0.0001145,53.2172,46.9186,98.531,261.5812,0.00025627,3.795e-05,0.0,0 STARLINK-4662,1 53738U 22107AQ  23090.32231020  .00003795  00000-0  25627-3 0  9994,2 53738  53.2172  46.9186 0001145  98.5310 261.5812 15.08855189 31626,6917.834,95.437,540.491,538.907,0.0
53738.0,STARLINK-4662,PAYLOAD,2023-04-01 05:59:31,15.08853536,0.0001343,53.2181,42.7527,89.8137,270.3009,0.00034295,5.176e-05,0.0,0 STARLINK-4662,1 53738U 22107AQ  23091.24967406  .00005176  00000-0  34295-3 0  9996,2 53738  53.2181  42.7527 0001343  89.8137 270.3009 15.08853536 31764,6917.839,95.437,540.633,538.775,0.0
53738.0,STARLINK-4662,PAYLOAD,2023-04-02 05:50:19,15.08840272,0.000134,53.218,38.2934,100.2329,259.8814,-3.8856e-05,-9.06e-06,0.0,0 STARLINK-4662,1 53738U 22107AQ  23092.24328185 -.00000906  00000-0 -38856-4 0  9998,2 53738  53.2180  38.2934 0001340 100.2329 259.8814 15.08840272 31919,6917.88,95.438,540.672,538.818,0.0
53738.0,STARLINK-4662,PAYLOAD,2023-04-02 20:08:48,15.08836209,0.0001514,53.218,35.6163,120.038,240.0763,6.6467e-05,7.7e-06,0.0,0 STARLINK-4662,1 53738U 22107AQ  23092.83944603  .00000770  00000-0  66467-4 0  9998,2 53738  53.2180  35.6163 0001514 120.0380 240.0763 15.08836209 32634,6917.892,95.438,540.804,538.71,0.0
53738.0,STARLINK-4662,PAYLOAD,2023-04-03 05:41:06,15.08848857,0.0001187,53.2167,33.8348,103.7689,256.3435,0.00012744,1.741e-05,0.0,0 STARLINK-4662,1 53738U 22107AQ  23093.23688099  .00001741  00000-0  12744-3 0  9994,2 53738  53.2167  33.8348 0001187 103.7689 256.3435 15.08848857 32694,6917.853,95.437,540.539,538.897,0.0
53738.0,STARLINK-4662,PAYLOAD,2023-04-04 05:31:53,15.08856453,0.0001391,53.2176,29.3733,101.5158,258.599,0.00036758,5.57e-05,0.0,0 STARLINK-4662,1 53738U 22107AQ  23094.23047807  .00005570  00000-0  36758-3 0  9996,2 53738  53.2176  29.3733 0001391 101.5158 258.5990 15.08856453 32844,6917.83,95.437,540.657,538.733,0.0
53738.0,STARLINK-4662,PAYLOAD,2023-04-05 03:47:17,15.08844935,0.0001368,53.2182,25.2111,99.819,260.2956,7.5451e-05,9.13e-06,0.0,0 STARLINK-4662,1 53738U 22107AQ  23095.15784104  .00000913  00000-0  75451-4 0  9996,2 53738  53.2182  25.2111 0001368  99.8190 260.2956 15.08844935 32355,6917.865,95.437,540.677,538.784,0.0
53738.0,STARLINK-4662,PAYLOAD,2023-04-06 05:13:27,15.08851517,0.0001138,53.218,20.4546,96.7425,263.3697,0.00040427,6.154e-05,0.0,0 STARLINK-4662,1 53738U 22107AQ  23096.21767670  .00006154  00000-0  40427-3 0  9990,2 53738  53.2180  20.4546 0001138  96.7425 263.3697 15.08851517 32512,6917.845,95.437,540.497,538.923,0.0
53738.0,STARLINK-4662,PAYLOAD,2023-04-06 19:31:56,15.08836006,0.0001073,53.2173,17.7763,101.1515,258.9597,-2.5156e-05,-6.88e-06,0.0,0 STARLINK-4662,1 53738U 22107AQ  23096.81384343 -.00000688  00000-0 -25156-4 0  9999,2 53738  53.2173  17.7763 0001073 101.1515 258.9597 15.08836006 32608,6917.893,95.438,540.5,539.015,0.0
53738.0,STARLINK-4662,PAYLOAD,2023-04-07 05:04:14,15.08848683,0.0001066,53.2172,15.9936,103.5907,256.5204,0.00031323,4.702e-05,0.0,0 STARLINK-4662,1 53738U 22107AQ  23097.21128191  .00004702  00000-0  31323-3 0  9992,2 53738  53.2172  15.9936 0001066 103.5907 256.5204 15.08848683 32661,6917.854,95.437,540.456,538.981,0.0
53738.0,STARLINK-4662,PAYLOAD,2023-04-08 03:19:38,15.0884446,0.0001033,53.2168,11.8296,100.7069,259.4039,0.00011957,1.616e-05,0.0,0 STARLINK-4662,1 53738U 22107AQ  23098.13864336  .00001616  00000-0  11957-3 0  9994,2 53738  53.2168  11.8296 0001033 100.7069 259.4039 15.08844460 32805,6917.867,95.437,540.446,539.017,0.0
53738.0,STARLINK-4662,PAYLOAD,2023-04-08 17:38:07,15.08838022,0.0001134,53.2158,9.1561,92.8337,267.2785,0.00014091,1.955e-05,0.0,0 STARLINK-4662,1 53738U 22107AQ  23098.73480789  .00001955  00000-0  14091-3 0  9994,2 53738  53.2158   9.1561 0001134  92.8337 267.2785 15.08838022 32891,6917.886,95.438,540.536,538.967,0.0
53738.0,STARLINK-4662,PAYLOAD,2023-04-09 03:10:25,15.08847275,0.0001099,53.2161,7.3701,100.3429,259.7688,0.00018359,2.636e-05,0.0,0 STARLINK-4662,1 53738U 22107AQ  23099.13224396  .00002636  00000-0  18359-3 0  9997,2 53738  53.2161   7.3701 0001099 100.3429 259.7688 15.08847275 32953,6917.858,95.437,540.483,538.963,0.0
53738.0,STARLINK-4662,PAYLOAD,2023-04-09 17:28:54,15.08835186,0.0001177,53.2171,4.6934,89.2619,270.8508,7.025e-05,8.3e-06,0.0,0 STARLINK-4662,1 53738U 22107AQ  23099.72841287  .00000830  00000-0  70250-4 0  9999,2 53738  53.2171   4.6934 0001177  89.2619 270.8508 15.08835186 33678,6917.895,95.438,540.574,538.946,0.0
53738.0,STARLINK-4662,PAYLOAD,2023-04-09 23:50:27,15.08840964,0.00011,53.216,3.506,85.9528,274.1589,6.7171e-05,7.81e-06,0.0,0 STARLINK-4662,1 53738U 22107AQ  23099.99337029  .00000781  00000-0  67171-4 0  9995,2 53738  53.2160   3.5060 0001100  85.9528 274.1589 15.08840964 33083,6917.877,95.437,540.503,538.981,0.0
53738.0,STARLINK-4662,PAYLOAD,2023-04-10 03:01:13,15.08843026,0.0001038,53.216,2.91,91.9328,268.1783,0.00011305,1.512e-05,0.0,0 STARLINK-4662,1 53738U 22107AQ  23100.12584967  .00001512  00000-0  11305-3 0  9998,2 53738  53.2160   2.9100 0001038  91.9328 268.1783 15.08843026 33739,6917.871,95.437,540.454,539.018,0.0
53738.0,STARLINK-4662,PAYLOAD,2023-04-10 22:05:50,15.0885184,0.0001134,53.2159,359.3417,85.5447,274.5675,0.00030805,4.62e-05,0.0,0 STARLINK-4662,1 53738U 22107AQ  23100.92072613  .00004620  00000-0  30805-3 0  9995,2 53738  53.2159 359.3417 0001134  85.5447 274.5675 15.08851840 33852,6917.844,95.437,540.494,538.925,0.0
53738.0,STARLINK-4662,PAYLOAD,2023-04-11 02:51:59,15.08857884,0.0001088,53.2159,358.4488,92.6797,267.4319,0.00040503,6.167e-05,0.0,0 STARLINK-4662,1 53738U 22107AQ  23101.11944158  .00006167  00000-0  40503-3 0  9993,2 53738  53.2159 358.4488 0001088  92.6797 267.4319 15.08857884 33259,6917.826,95.436,540.443,538.938,0.0
53738.0,STARLINK-4662,PAYLOAD,2023-04-11 17:10:28,15.08838458,0.0001298,53.2163,355.7733,87.6584,272.4557,2.3229e-05,8.2e-07,0.0,0 STARLINK-4662,1 53738U 22107AQ  23101.71561134  .00000082  00000-0  23229-4 0  9995,2 53738  53.2163 355.7733 0001298  87.6584 272.4557 15.08838458 33344,6917.885,95.438,540.648,538.852,0.0
53738.0,STARLINK-4662,PAYLOAD,2023-04-12 02:42:47,15.08838132,0.0001284,53.2164,353.9881,94.2998,265.814,2.54e-05,1.16e-06,0.0,0 STARLINK-4662,1 53738U 22107AQ  23102.11305137  .00000116  00000-0  25400-4 0  9990,2 53738  53.2164 353.9881 0001284  94.2998 265.8140 15.08838132 34037,6917.886,95.438,540.639,538.863,0.0
53738.0,STARLINK-4662,PAYLOAD,2023-04-12 23:22:48,15.08842977,0.0001279,53.2166,350.1233,92.8508,267.2631,0.00023,3.375e-05,0.0,0 STARLINK-4662,1 53738U 22107AQ  23102.97417240  .00003375  00000-0  23000-3 0  9996,2 53738  53.2166 350.1233 0001279  92.8508 267.2631 15.08842977 34161,6917.871,95.437,540.621,538.851,0.0
53738.0,STARLINK-4662,PAYLOAD,2023-04-14 00:48:58,15.08850769,0.000125,53.2154,345.3659,98.4424,261.6709,0.00033811,5.099e-05,0.0,0 STARLINK-4662,1 53738U 22107AQ  23104.03400954  .00005099  00000-0  33811-3 0  9995,2 53738  53.2154 345.3659 0001250  98.4424 261.6709 15.08850769 33693,6917.847,95.437,540.577,538.848,0.0
